{
    "links": {
        "self": "http://www.neowsapp.com/rest/v1/neo/3722517?api_key=iIulBulltgU6a56xZRHN4H3l9WmuAYTsLGpBGhQ2"
    },
    "id": "3722517",
    "neo_reference_id": "3722517",
    "name": "(2015 MO89)",
    "designation": "2015 MO89",
    "nasa_jpl_url": "http://ssd.jpl.nasa.gov/sbdb.cgi?sstr=3722517",
    "absolute_magnitude_h": 23.6,
    "estimated_diameter": {
        "kilometers": {
            "estimated_diameter_min": 0.0506471459,
            "estimated_diameter_max": 0.1132504611
        },
        "meters": {
            "estimated_diameter_min": 50.6471458835,
            "estimated_diameter_max": 113.2504610618
        },
        "miles": {
            "estimated_diameter_min": 0.0314706677,
            "estimated_diameter_max": 0.0703705522
        },
        "feet": {
            "estimated_diameter_min": 166.1651821003,
            "estimated_diameter_max": 371.5566426699
        }
    },
    "is_potentially_hazardous_asteroid": false,
    "close_approach_data": [
        {
            "close_approach_date": "2012-05-19",
            "close_approach_date_full": "2012-May-19 19:31",
            "epoch_date_close_approach": 1337455860000,
            "relative_velocity": {
                "kilometers_per_second": "22.463377124",
                "kilometers_per_hour": "80868.1576465487",
                "miles_per_hour": "50248.328288768"
            },
            "miss_distance": {
                "astronomical": "0.495765612",
                "lunar": "192.852823068",
                "kilometers": "74165479.57444644",
                "miles": "46084292.050543272"
            },
            "orbiting_body": "Earth"
        },
        {
            "close_approach_date": "2015-07-08",
            "close_approach_date_full": "2015-Jul-08 10:56",
            "epoch_date_close_approach": 1436352960000,
            "relative_velocity": {
                "kilometers_per_second": "8.2694111788",
                "kilometers_per_hour": "29769.8802437066",
                "miles_per_hour": "18497.8458658742"
            },
            "miss_distance": {
                "astronomical": "0.0515987337",
                "lunar": "20.0719074093",
                "kilometers": "7719060.656217219",
                "miles": "4796401.8796628622"
            },
            "orbiting_body": "Earth"
        },
        {
            "close_approach_date": "2018-09-17",
            "close_approach_date_full": "2018-Sep-17 05:01",
            "epoch_date_close_approach": 1537160460000,
            "relative_velocity": {
                "kilometers_per_second": "19.9461079697",
                "kilometers_per_hour": "71805.9886909117",
                "miles_per_hour": "44617.4489174168"
            },
            "miss_distance": {
                "astronomical": "0.4358685305",
                "lunar": "169.5528583645",
                "kilometers": "65205003.762830035",
                "miles": "40516510.562663083"
            },
            "orbiting_body": "Earth"
        }
    ],
    "orbital_data": {
        "orbit_id": "8",
        "orbit_determination_date": "2017-04-06 08:32:57",
        "first_observation_date": "2015-06-23",
        "last_observation_date": "2015-07-20",
        "data_arc_in_days": 27,
        "observations_used": 33,
        "orbit_uncertainty": "7",
        "minimum_orbit_intersection": ".0370502",
        "jupiter_tisserand_invariant": "3.535",
        "epoch_osculation": "2459000.5",
        "eccentricity": ".520620301755556",
        "semi_major_axis": "2.119360315380328",
        "inclination": "7.713074232471645",
        "ascending_node_longitude": "86.08008715790125",
        "orbital_period": "1126.952532533222",
        "perihelion_distance": "1.015978308458271",
        "perihelion_argument": "213.190731234208",
        "aphelion_distance": "3.222742322302385",
        "perihelion_time": "2459477.866459939674",
        "mean_anomaly": "207.5073966141368",
        "mean_motion": ".3194455752193693",
        "equinox": "J2000",
        "orbit_class": {
            "orbit_class_type": "APO",
            "orbit_class_description": "Near-Earth asteroid orbits which cross the Earth’s orbit similar to that of 1862 Apollo",
            "orbit_class_range": "a (semi-major axis) > 1.0 AU; q (perihelion) < 1.017 AU"
        }
    },
    "is_sentry_object": false
}